{"spkid": "50160871", "covariance": {"elements": [{"label": "e", "units": null, "value": ".5626989413872341", "title": "eccentricity", "sigma": 8.41905735874932e-08, "name": "e"}, {"name": "q", "sigma": 1.21937166516305e-07, "value": ".5954536571550926", "title": "perihelion distance", "units": "au", "label": "q"}, {"label": "tp", "sigma": 6.29677230465696e-05, "name": "tp", "units": "TDB", "title": "time of perihelion passage", "value": "2453432.499266716783"}, {"units": "deg", "value": "271.643389184918", "title": "longitude of the ascending node", "name": "om", "sigma": 0.000815883339459632, "label": "node"}, {"sigma": 0.000845463226778829, "name": "w", "units": "deg", "value": "354.7566442182591", "title": "argument of perihelion", "label": "peri"}, {"label": "i", "name": "i", "sigma": 4.94551884861467e-06, "units": "deg", "title": "inclination", "value": "1.704582319333728"}], "data": [["7.088052680991112E-15", "-1.02614472368716E-14", "2.632210280854901E-12", "-2.206307714213691E-11", "2.334049288964841E-11", "-1.406789483310177E-13"], ["-1.02614472368716E-14", "1.486867257802514E-14", "-3.769910151443231E-12", "3.123913389058982E-11", "-3.306535376211857E-11", "2.074683200514385E-13"], ["2.632210280854901E-12", "-3.769910151443231E-12", "3.964934145669494E-9", "-4.089856400585846E-8", "4.321505915043608E-8", "-8.554575856686321E-11"], ["-2.206307714213691E-11", "3.123913389058982E-11", "-4.089856400585846E-8", "6.656656236078007E-7", "-6.895444270331291E-7", "2.36299102885957E-10"], ["2.334049288964841E-11", "-3.306535376211857E-11", "4.321505915043608E-8", "-6.895444270331291E-7", "7.148080678352694E-7", "-2.833304496629596E-10"], ["-1.406789483310177E-13", "2.074683200514385E-13", "-8.554575856686321E-11", "2.36299102885957E-10", "-2.833304496629596E-10", "2.445815668200294E-11"]], "labels": ["e", "q", "tp", "node", "peri", "i"], "epoch": "2453507.5"}, "elements": [{"label": "e", "sigma": "8.5059E-8", "name": "e", "value": ".5629647409888175", "title": "eccentricity", "units": null}, {"label": "a", "units": "au", "title": "semi-major axis", "value": "1.361806380895223", "sigma": "1.3422E-8", "name": "a"}, {"name": "q", "sigma": "1.2124E-7", "value": ".595157404397625", "title": "perihelion distance", "units": "au", "label": "q"}, {"units": "deg", "title": "inclination; angle with respect to x-y ecliptic plane", "value": "1.706222005284571", "sigma": "4.9458E-6", "name": "i", "label": "i"}, {"name": "om", "sigma": ".00081416", "title": "longitude of the ascending node", "value": "271.3425055609836", "units": "deg", "label": "node"}, {"sigma": ".00084384", "name": "w", "units": "deg", "title": "argument of perihelion", "value": "355.1039017282801", "label": "peri"}, {"title": "mean anomaly", "value": "137.434351577466", "units": "deg", "sigma": "7.3213E-5", "name": "ma", "label": "M"}, {"label": "tp", "units": "TDB", "title": "time of perihelion passage", "value": "2460978.902798729476", "sigma": ".00011537", "name": "tp"}, {"sigma": "8.5814E-6", "name": "per", "title": "sidereal orbital period", "value": "580.4588994071325", "units": "d", "label": "period"}, {"sigma": "9.1689E-9", "name": "n", "units": "deg/d", "title": "mean motion", "value": ".6201989501198031", "label": "n"}, {"label": "Q", "title": "aphelion distance", "value": "2.128455357392822", "units": "au", "name": "ad", "sigma": "2.0978E-8"}], "epoch": "2461200.5"}